<?xml version="1.0" encoding="UTF-8"?>
<ndm xmlns:xsi="http://www.w3.org/2001/XMLSchema-instance" xsi:noNamespaceSchemaLocation="https://sanaregistry.org/r/ndmxml_unqualified/ndmxml-2.0.0-master-2.0.xsd">
<omm id="CCSDS_OMM_VERS" version="2.0">
<header><CREATION_DATE/><ORIGINATOR/></header><body><segment><metadata><OBJECT_NAME>IRIDIUM 36 [-]</OBJECT_NAME><OBJECT_ID>1997-056C</OBJECT_ID><CENTER_NAME>EARTH</CENTER_NAME><REF_FRAME>TEME</REF_FRAME><TIME_SYSTEM>UTC</TIME_SYSTEM><MEAN_ELEMENT_THEORY>SGP4</MEAN_ELEMENT_THEORY></metadata><data><meanElements><EPOCH>2024-01-16T10:56:41.609760</EPOCH><MEAN_MOTION>14.36584245</MEAN_MOTION><ECCENTRICITY>.0002049</ECCENTRICITY><INCLINATION>86.3954</INCLINATION><RA_OF_ASC_NODE>30.3759</RA_OF_ASC_NODE><ARG_OF_PERICENTER>92.1611</ARG_OF_PERICENTER><MEAN_ANOMALY>267.9821</MEAN_ANOMALY></meanElements><tleParameters><EPHEMERIS_TYPE>0</EPHEMERIS_TYPE><CLASSIFICATION_TYPE>U</CLASSIFICATION_TYPE><NORAD_CAT_ID>24967</NORAD_CAT_ID><ELEMENT_SET_NO>999</ELEMENT_SET_NO><REV_AT_EPOCH>37786</REV_AT_EPOCH><BSTAR>.26185E-3</BSTAR><MEAN_MOTION_DOT>.789E-5</MEAN_MOTION_DOT><MEAN_MOTION_DDOT>0</MEAN_MOTION_DDOT></tleParameters></data></segment></body></omm>
<omm id="CCSDS_OMM_VERS" version="2.0">
<header><CREATION_DATE/><ORIGINATOR/></header><body><segment><metadata><OBJECT_NAME>IRIDIUM 39 [-]</OBJECT_NAME><OBJECT_ID>1997-069D</OBJECT_ID><CENTER_NAME>EARTH</CENTER_NAME><REF_FRAME>TEME</REF_FRAME><TIME_SYSTEM>UTC</TIME_SYSTEM><MEAN_ELEMENT_THEORY>SGP4</MEAN_ELEMENT_THEORY></metadata><data><meanElements><EPOCH>2024-01-15T15:28:04.677312</EPOCH><MEAN_MOTION>14.47624971</MEAN_MOTION><ECCENTRICITY>.0016638</ECCENTRICITY><INCLINATION>86.3893</INCLINATION><RA_OF_ASC_NODE>73.2588</RA_OF_ASC_NODE><ARG_OF_PERICENTER>232.2965</ARG_OF_PERICENTER><MEAN_ANOMALY>127.6730</MEAN_ANOMALY></meanElements><tleParameters><EPHEMERIS_TYPE>0</EPHEMERIS_TYPE><CLASSIFICATION_TYPE>U</CLASSIFICATION_TYPE><NORAD_CAT_ID>25042</NORAD_CAT_ID><ELEMENT_SET_NO>999</ELEMENT_SET_NO><REV_AT_EPOCH>37390</REV_AT_EPOCH><BSTAR>.32623E-3</BSTAR><MEAN_MOTION_DOT>.1223E-4</MEAN_MOTION_DOT><MEAN_MOTION_DDOT>0</MEAN_MOTION_DDOT></tleParameters></data></segment></body></omm>
<omm id="CCSDS_OMM_VERS" version="2.0">
<header><CREATION_DATE/><ORIGINATOR/></header><body><segment><metadata><OBJECT_NAME>IRIDIUM 38 [-]</OBJECT_NAME><OBJECT_ID>1997-069E</OBJECT_ID><CENTER_NAME>EARTH</CENTER_NAME><REF_FRAME>TEME</REF_FRAME><TIME_SYSTEM>UTC</TIME_SYSTEM><MEAN_ELEMENT_THEORY>SGP4</MEAN_ELEMENT_THEORY></metadata><data><meanElements><EPOCH>2024-01-16T07:15:55.143648</EPOCH><MEAN_MOTION>14.37055281</MEAN_MOTION><ECCENTRICITY>.0003211</ECCENTRICITY><INCLINATION>86.3948</INCLINATION><RA_OF_ASC_NODE>90.9151</RA_OF_ASC_NODE><ARG_OF_PERICENTER>57.5494</ARG_OF_PERICENTER><MEAN_ANOMALY>302.6013</MEAN_ANOMALY></meanElements><tleParameters><EPHEMERIS_TYPE>0</EPHEMERIS_TYPE><CLASSIFICATION_TYPE>U</CLASSIFICATION_TYPE><NORAD_CAT_ID>25043</NORAD_CAT_ID><ELEMENT_SET_NO>999</ELEMENT_SET_NO><REV_AT_EPOCH>37181</REV_AT_EPOCH><BSTAR>.2855E-3</BSTAR><MEAN_MOTION_DOT>.866E-5</MEAN_MOTION_DOT><MEAN_MOTION_DDOT>0</MEAN_MOTION_DDOT></tleParameters></data></segment></body></omm>
<omm id="CCSDS_OMM_VERS" version="2.0">
<header><CREATION_DATE/><ORIGINATOR/></header><body><segment><metadata><OBJECT_NAME>IRIDIUM 42 [-]</OBJECT_NAME><OBJECT_ID>1997-077A</OBJECT_ID><CENTER_NAME>EARTH</CENTER_NAME><REF_FRAME>TEME</REF_FRAME><TIME_SYSTEM>UTC</TIME_SYSTEM><MEAN_ELEMENT_THEORY>SGP4</MEAN_ELEMENT_THEORY></metadata><data><meanElements><EPOCH>2024-01-15T18:09:32.365440</EPOCH><MEAN_MOTION>14.35350085</MEAN_MOTION><ECCENTRICITY>.0002282</ECCENTRICITY><INCLINATION>86.3958</INCLINATION><RA_OF_ASC_NODE>96.6845</RA_OF_ASC_NODE><ARG_OF_PERICENTER>76.3671</ARG_OF_PERICENTER><MEAN_ANOMALY>283.7779</MEAN_ANOMALY></meanElements><tleParameters><EPHEMERIS_TYPE>0</EPHEMERIS_TYPE><CLASSIFICATION_TYPE>U</CLASSIFICATION_TYPE><NORAD_CAT_ID>25077</NORAD_CAT_ID><ELEMENT_SET_NO>999</ELEMENT_SET_NO><REV_AT_EPOCH>36680</REV_AT_EPOCH><BSTAR>.2664E-3</BSTAR><MEAN_MOTION_DOT>.783E-5</MEAN_MOTION_DOT><MEAN_MOTION_DDOT>0</MEAN_MOTION_DDOT></tleParameters></data></segment></body></omm>
<omm id="CCSDS_OMM_VERS" version="2.0">
<header><CREATION_DATE/><ORIGINATOR/></header><body><segment><metadata><OBJECT_NAME>IRIDIUM 44 [-]</OBJECT_NAME><OBJECT_ID>1997-077B</OBJECT_ID><CENTER_NAME>EARTH</CENTER_NAME><REF_FRAME>TEME</REF_FRAME><TIME_SYSTEM>UTC</TIME_SYSTEM><MEAN_ELEMENT_THEORY>SGP4</MEAN_ELEMENT_THEORY></metadata><data><meanElements><EPOCH>2024-01-15T16:58:46.411968</EPOCH><MEAN_MOTION>14.39162447</MEAN_MOTION><ECCENTRICITY>.000073</ECCENTRICITY><INCLINATION>86.3934</INCLINATION><RA_OF_ASC_NODE>80.0126</RA_OF_ASC_NODE><ARG_OF_PERICENTER>33.7667</ARG_OF_PERICENTER><MEAN_ANOMALY>326.3578</MEAN_ANOMALY></meanElements><tleParameters><EPHEMERIS_TYPE>0</EPHEMERIS_TYPE><CLASSIFICATION_TYPE>U</CLASSIFICATION_TYPE><NORAD_CAT_ID>25078</NORAD_CAT_ID><ELEMENT_SET_NO>999</ELEMENT_SET_NO><REV_AT_EPOCH>36910</REV_AT_EPOCH><BSTAR>.26796E-3</BSTAR><MEAN_MOTION_DOT>.849E-5</MEAN_MOTION_DOT><MEAN_MOTION_DDOT>0</MEAN_MOTION_DDOT></tleParameters></data></segment></body></omm>
<omm id="CCSDS_OMM_VERS" version="2.0">
<header><CREATION_DATE/><ORIGINATOR/></header><body><segment><metadata><OBJECT_NAME>IRIDIUM 45 [-]</OBJECT_NAME><OBJECT_ID>1997-082A</OBJECT_ID><CENTER_NAME>EARTH</CENTER_NAME><REF_FRAME>TEME</REF_FRAME><TIME_SYSTEM>UTC</TIME_SYSTEM><MEAN_ELEMENT_THEORY>SGP4</MEAN_ELEMENT_THEORY></metadata><data><meanElements><EPOCH>2024-01-15T19:01:03.595872</EPOCH><MEAN_MOTION>14.98116345</MEAN_MOTION><ECCENTRICITY>.0175675</ECCENTRICITY><INCLINATION>86.3761</INCLINATION><RA_OF_ASC_NODE>294.0024</RA_OF_ASC_NODE><ARG_OF_PERICENTER>75.7897</ARG_OF_PERICENTER><MEAN_ANOMALY>286.2777</MEAN_ANOMALY></meanElements><tleParameters><EPHEMERIS_TYPE>0</EPHEMERIS_TYPE><CLASSIFICATION_TYPE>U</CLASSIFICATION_TYPE><NORAD_CAT_ID>25104</NORAD_CAT_ID><ELEMENT_SET_NO>999</ELEMENT_SET_NO><REV_AT_EPOCH>37385</REV_AT_EPOCH><BSTAR>.11106E-2</BSTAR><MEAN_MOTION_DOT>.18193E-3</MEAN_MOTION_DOT><MEAN_MOTION_DDOT>0</MEAN_MOTION_DDOT></tleParameters></data></segment></body></omm>
<omm id="CCSDS_OMM_VERS" version="2.0">
<header><CREATION_DATE/><ORIGINATOR/></header><body><segment><metadata><OBJECT_NAME>IRIDIUM 24 [-]</OBJECT_NAME><OBJECT_ID>1997-082B</OBJECT_ID><CENTER_NAME>EARTH</CENTER_NAME><REF_FRAME>TEME</REF_FRAME><TIME_SYSTEM>UTC</TIME_SYSTEM><MEAN_ELEMENT_THEORY>SGP4</MEAN_ELEMENT_THEORY></metadata><data><meanElements><EPOCH>2024-01-15T20:17:46.962816</EPOCH><MEAN_MOTION>14.40934593</MEAN_MOTION><ECCENTRICITY>.0011493</ECCENTRICITY><INCLINATION>86.3921</INCLINATION><RA_OF_ASC_NODE>299.8097</RA_OF_ASC_NODE><ARG_OF_PERICENTER>0.3115</ARG_OF_PERICENTER><MEAN_ANOMALY>359.8090</MEAN_ANOMALY></meanElements><tleParameters><EPHEMERIS_TYPE>0</EPHEMERIS_TYPE><CLASSIFICATION_TYPE>U</CLASSIFICATION_TYPE><NORAD_CAT_ID>25105</NORAD_CAT_ID><ELEMENT_SET_NO>999</ELEMENT_SET_NO><REV_AT_EPOCH>36879</REV_AT_EPOCH><BSTAR>.33402E-3</BSTAR><MEAN_MOTION_DOT>.1092E-4</MEAN_MOTION_DOT><MEAN_MOTION_DDOT>0</MEAN_MOTION_DDOT></tleParameters></data></segment></body></omm>
<omm id="CCSDS_OMM_VERS" version="2.0">
<header><CREATION_DATE/><ORIGINATOR/></header><body><segment><metadata><OBJECT_NAME>IRIDIUM 51 [-]</OBJECT_NAME><OBJECT_ID>1998-018A</OBJECT_ID><CENTER_NAME>EARTH</CENTER_NAME><REF_FRAME>TEME</REF_FRAME><TIME_SYSTEM>UTC</TIME_SYSTEM><MEAN_ELEMENT_THEORY>SGP4</MEAN_ELEMENT_THEORY></metadata><data><meanElements><EPOCH>2024-01-15T19:10:58.533312</EPOCH><MEAN_MOTION>15.05361526</MEAN_MOTION><ECCENTRICITY>.0160236</ECCENTRICITY><INCLINATION>86.3908</INCLINATION><RA_OF_ASC_NODE>304.2658</RA_OF_ASC_NODE><ARG_OF_PERICENTER>27.2910</ARG_OF_PERICENTER><MEAN_ANOMALY>333.6629</MEAN_ANOMALY></meanElements><tleParameters><EPHEMERIS_TYPE>0</EPHEMERIS_TYPE><CLASSIFICATION_TYPE>U</CLASSIFICATION_TYPE><NORAD_CAT_ID>25262</NORAD_CAT_ID><ELEMENT_SET_NO>999</ELEMENT_SET_NO><REV_AT_EPOCH>36829</REV_AT_EPOCH><BSTAR>.13796E-2</BSTAR><MEAN_MOTION_DOT>.26506E-3</MEAN_MOTION_DOT><MEAN_MOTION_DDOT>0</MEAN_MOTION_DDOT></tleParameters></data></segment></body></omm>

</ndm>
