IRIDIUM 36 [-]          
1 24967U 97056C   24016.45603715  .00000789  00000+0  26185-3 0  9997
2 24967  86.3954  30.3759 0002049  92.1611 267.9821 14.36584245377865
IRIDIUM 39 [-]          
1 25042U 97069D   24015.64449858  .00001223  00000+0  32623-3 0  9990
2 25042  86.3893  73.2588 0016638 232.2965 127.6730 14.47624971373901
IRIDIUM 38 [-]          
1 25043U 97069E   24016.30272157  .00000866  00000+0  28550-3 0  9997
2 25043  86.3948  90.9151 0003211  57.5494 302.6013 14.37055281371811
IRIDIUM 42 [-]          
1 25077U 97077A   24015.75662460  .00000783  00000+0  26640-3 0  9997
2 25077  86.3958  96.6845 0002282  76.3671 283.7779 14.35350085366804
IRIDIUM 44 [-]          
1 25078U 97077B   24015.70748162  .00000849  00000+0  26796-3 0  9992
2 25078  86.3934  80.0126 0000730  33.7667 326.3578 14.39162447369100
IRIDIUM 45 [-]          
1 25104U 97082A   24015.79240273  .00018193  00000+0  11106-2 0  9996
2 25104  86.3761 294.0024 0175675  75.7897 286.2777 14.98116345373857
IRIDIUM 24 [-]          
1 25105U 97082B   24015.84568244  .00001092  00000+0  33402-3 0  9998
2 25105  86.3921 299.8097 0011493   0.3115 359.8090 14.40934593368795
IRIDIUM 51 [-]          
1 25262U 98018A   24015.79928858  .00026506  00000+0  13796-2 0  9997
2 25262  86.3908 304.2658 0160236  27.2910 333.6629 15.05361526368294
